{
    "links": {
        "self": "http://www.neowsapp.com/rest/v1/neo/3684732?api_key=iIulBulltgU6a56xZRHN4H3l9WmuAYTsLGpBGhQ2"
    },
    "id": "3684732",
    "neo_reference_id": "3684732",
    "name": "(2014 QJ365)",
    "designation": "2014 QJ365",
    "nasa_jpl_url": "http://ssd.jpl.nasa.gov/sbdb.cgi?sstr=3684732",
    "absolute_magnitude_h": 27.5,
    "estimated_diameter": {
        "kilometers": {
            "estimated_diameter_min": 0.008405334,
            "estimated_diameter_max": 0.0187948982
        },
        "meters": {
            "estimated_diameter_min": 8.4053340207,
            "estimated_diameter_max": 18.7948982439
        },
        "miles": {
            "estimated_diameter_min": 0.0052228308,
            "estimated_diameter_max": 0.0116786047
        },
        "feet": {
            "estimated_diameter_min": 27.5765560686,
            "estimated_diameter_max": 61.6630539546
        }
    },
    "is_potentially_hazardous_asteroid": false,
    "close_approach_data": [
        {
            "close_approach_date": "1955-03-25",
            "close_approach_date_full": "1955-Mar-25 10:02",
            "epoch_date_close_approach": -466178280000,
            "relative_velocity": {
                "kilometers_per_second": "25.149371748",
                "kilometers_per_hour": "90537.7382928713",
                "miles_per_hour": "56256.6296631455"
            },
            "miss_distance": {
                "astronomical": "0.4437765678",
                "lunar": "172.6290848742",
                "kilometers": "66388029.298790586",
                "miles": "41251608.5437626468"
            },
            "orbiting_body": "Earth"
        },
        {
            "close_approach_date": "2014-08-25",
            "close_approach_date_full": "2014-Aug-25 15:43",
            "epoch_date_close_approach": 1408981380000,
            "relative_velocity": {
                "kilometers_per_second": "12.4997157237",
                "kilometers_per_hour": "44998.9766052376",
                "miles_per_hour": "27960.6141022933"
            },
            "miss_distance": {
                "astronomical": "0.0075057291",
                "lunar": "2.9197286199",
                "kilometers": "1122841.086157017",
                "miles": "697701.0981081546"
            },
            "orbiting_body": "Moon"
        },
        {
            "close_approach_date": "2014-08-25",
            "close_approach_date_full": "2014-Aug-25 22:41",
            "epoch_date_close_approach": 1409006460000,
            "relative_velocity": {
                "kilometers_per_second": "12.2150667206",
                "kilometers_per_hour": "43974.2401942234",
                "miles_per_hour": "27323.8827473495"
            },
            "miss_distance": {
                "astronomical": "0.0067163466",
                "lunar": "2.6126588274",
                "kilometers": "1004751.145541742",
                "miles": "624323.4115783596"
            },
            "orbiting_body": "Earth"
        },
        {
            "close_approach_date": "2084-09-20",
            "close_approach_date_full": "2084-Sep-20 05:20",
            "epoch_date_close_approach": 3620265600000,
            "relative_velocity": {
                "kilometers_per_second": "24.2655327462",
                "kilometers_per_hour": "87355.917886491",
                "miles_per_hour": "54279.570200081"
            },
            "miss_distance": {
                "astronomical": "0.4153030368",
                "lunar": "161.5528813152",
                "kilometers": "62128449.709811616",
                "miles": "38604828.5199916608"
            },
            "orbiting_body": "Earth"
        }
    ],
    "orbital_data": {
        "orbit_id": "3",
        "orbit_determination_date": "2017-04-06 08:39:00",
        "first_observation_date": "2014-08-30",
        "last_observation_date": "2014-09-01",
        "data_arc_in_days": 2,
        "observations_used": 14,
        "orbit_uncertainty": "9",
        "minimum_orbit_intersection": ".00147039",
        "jupiter_tisserand_invariant": "4.192",
        "epoch_osculation": "2456900.5",
        "eccentricity": ".478304127574286",
        "semi_major_axis": "1.619957958058273",
        "inclination": "1.343720178662529",
        "ascending_node_longitude": "155.3982152001893",
        "orbital_period": "753.1024186378592",
        "perihelion_distance": ".8451253802221892",
        "perihelion_argument": "115.9495312021763",
        "aphelion_distance": "2.394790535894358",
        "perihelion_time": "2456850.739833680806",
        "mean_anomaly": "23.78648565132799",
        "mean_motion": ".4780226315713261",
        "equinox": "J2000",
        "orbit_class": {
            "orbit_class_type": "APO",
            "orbit_class_description": "Near-Earth asteroid orbits which cross the Earth’s orbit similar to that of 1862 Apollo",
            "orbit_class_range": "a (semi-major axis) > 1.0 AU; q (perihelion) < 1.017 AU"
        }
    },
    "is_sentry_object": false
}